[{"OBJECT_NAME":"STARLINK-35053","OBJECT_ID":"2025-207T","EPOCH":"2026-03-09T18:00:33.016896","MEAN_MOTION":15.05647822,"ECCENTRICITY":2.684e-5,"INCLINATION":97.6027,"RA_OF_ASC_NODE":138.7711,"ARG_OF_PERICENTER":225.1605,"MEAN_ANOMALY":134.96,"EPHEMERIS_TYPE":0,"CLASSIFICATION_TYPE":"U","NORAD_CAT_ID":65609,"ELEMENT_SET_NO":999,"REV_AT_EPOCH":2811,"BSTAR":0.00045328842,"MEAN_MOTION_DOT":6.485e-5,"MEAN_MOTION_DDOT":0},{"OBJECT_NAME":"FENGYUN 1C DEB","OBJECT_ID":"1999-025AHJ","EPOCH":"2026-03-09T18:03:49.415328","MEAN_MOTION":14.96033857,"ECCENTRICITY":0.01248359,"INCLINATION":98.7826,"RA_OF_ASC_NODE":350.0057,"ARG_OF_PERICENTER":174.7814,"MEAN_ANOMALY":185.4738,"EPHEMERIS_TYPE":0,"CLASSIFICATION_TYPE":"U","NORAD_CAT_ID":30496,"ELEMENT_SET_NO":999,"REV_AT_EPOCH":2444,"BSTAR":0.00050780955,"MEAN_MOTION_DOT":6.595e-5,"MEAN_MOTION_DDOT":0}]
